NORAD_CAT_ID,OBJECT_NAME,OBJECT_TYPE,EPOCH,MEAN_MOTION,ECCENTRICITY,INCLINATION,RA_OF_ASC_NODE,ARG_OF_PERICENTER,MEAN_ANOMALY,BSTAR,MEAN_MOTION_DOT,MEAN_MOTION_DDOT,TLE_LINE0,TLE_LINE1,TLE_LINE2,SEMIMAJOR_AXIS,PERIOD,APOGEE,PERIGEE,DECAYED
52353.0,STARLINK-3807,PAYLOAD,2023-04-21 19:21:36,15.08856529,0.0001152,53.2164,245.6944,81.8129,278.2993,0.0014214,0.00022416,0.0,0 STARLINK-3807,1 52353U 22045Y   23111.80666793  .00022416  00000-0  14214-2 0  9993,2 52353  53.2164 245.6944 0001152  81.8129 278.2993 15.08856529 56834,6917.83,95.437,540.492,538.898,0.0
52353.0,STARLINK-3807,PAYLOAD,2023-04-22 01:43:08,15.08846782,0.0001606,53.2162,244.5055,91.7581,268.3595,0.00062753,9.715e-05,0.0,0 STARLINK-3807,1 52353U 22045Y   23112.07163004  .00009715  00000-0  62753-3 0  9999,2 52353  53.2162 244.5055 0001606  91.7581 268.3595 15.08846782 56871,6917.86,95.437,540.836,538.614,0.0
52353.0,STARLINK-3807,PAYLOAD,2023-04-22 20:47:45,15.08867348,0.0001555,53.2151,240.9365,84.8669,275.2501,0.001013,0.00015883,0.0,0 STARLINK-3807,1 52353U 22045Y   23112.86650195  .00015883  00000-0  10130-2 0  9992,2 52353  53.2151 240.9365 0001555  84.8669 275.2501 15.08867348 56994,6917.797,95.436,540.738,538.586,0.0
52353.0,STARLINK-3807,PAYLOAD,2023-04-23 20:38:33,15.08860061,0.0001927,53.2161,236.478,51.6269,308.4896,0.0013588,0.00021415,0.0,0 STARLINK-3807,1 52353U 22045Y   23113.86010945  .00021415  00000-0  13588-2 0  9994,2 52353  53.2161 236.4780 0001927  51.6269 308.4896 15.08860061 57146,6917.819,95.436,541.017,538.351,0.0
52353.0,STARLINK-3807,PAYLOAD,2023-04-24 01:24:43,15.08848586,0.0001463,53.2153,235.5854,84.1598,275.9561,0.0012479,0.00019633,0.0,0 STARLINK-3807,1 52353U 22045Y   23114.05883114  .00019633  00000-0  12479-2 0  9999,2 52353  53.2153 235.5854 0001463  84.1598 275.9561 15.08848586 57178,6917.854,95.437,540.731,538.707,0.0
52353.0,STARLINK-3807,PAYLOAD,2023-04-25 07:37:01,15.08787014,0.0001962,53.2158,229.9333,120.096,240.0227,0.0018184,0.00028729,0.0,0 STARLINK-3807,1 52353U 22045Y   23115.31737707  .00028729  00000-0  18184-2 0  9990,2 52353  53.2158 229.9333 0001962 120.0960 240.0227 15.08787014 57360,6918.042,95.441,541.265,538.55,0.0
52353.0,STARLINK-3807,PAYLOAD,2023-04-26 12:14:01,15.0879842,0.0001301,53.2172,224.5814,130.91,229.2005,0.00054893,8.449e-05,0.0,0 STARLINK-3807,1 52353U 22045Y   23116.50973382  .00008449  00000-0  54893-3 0  9998,2 52353  53.2172 224.5814 0001301 130.9100 229.2005 15.08798420 57540,6918.007,95.44,540.773,538.972,0.0
52353.0,STARLINK-3807,PAYLOAD,2023-04-26 18:35:34,15.08804624,0.0001375,53.217,223.3911,134.477,225.6335,0.00049187,7.541e-05,0.0,0 STARLINK-3807,1 52353U 22045Y   23116.77469939  .00007541  00000-0  49187-3 0  9997,2 52353  53.2170 223.3911 0001375 134.4770 225.6335 15.08804624 57580,6917.989,95.44,540.805,538.902,0.0
52353.0,STARLINK-3807,PAYLOAD,2023-04-27 12:04:48,15.08863254,8.75e-05,53.2152,220.1242,85.8332,274.276,0.0019997,0.00031701,0.0,0 STARLINK-3807,1 52353U 22045Y   23117.50333927  .00031701  00000-0  19997-2 0  9996,2 52353  53.2152 220.1242 0000875  85.8332 274.2760 15.08863254 57697,6917.809,95.436,540.28,539.069,0.0
52353.0,STARLINK-3807,PAYLOAD,2023-04-27 23:12:29,15.08870448,0.0001977,53.2161,218.0412,92.6079,267.514,0.0013092,0.00020627,0.0,0 STARLINK-3807,1 52353U 22045Y   23117.96701388  .00020627  00000-0  13092-2 0  9991,2 52353  53.2161 218.0412 0001977  92.6079 267.5140 15.08870448 57768,6917.787,95.436,541.02,538.285,0.0
52353.0,STARLINK-3807,PAYLOAD,2023-04-28 13:30:56,15.08876315,0.0001305,53.2166,215.3674,108.6889,251.4245,0.0010567,0.00016586,0.0,0 STARLINK-3807,1 52353U 22045Y   23118.56315888  .00016586  00000-0  10567-2 0  9997,2 52353  53.2166 215.3674 0001305 108.6889 251.4245 15.08876315 57852,6917.769,95.435,540.537,538.732,0.0
52353.0,STARLINK-3807,PAYLOAD,2023-04-28 23:03:15,15.0887466,0.0001118,53.2154,213.5825,100.6535,259.4583,0.00050261,7.728e-05,0.0,0 STARLINK-3807,1 52353U 22045Y   23118.96059127  .00007728  00000-0  50261-3 0  9996,2 52353  53.2154 213.5825 0001118 100.6535 259.4583 15.08874660 57910,6917.774,95.435,540.413,538.866,0.0
52353.0,STARLINK-3807,PAYLOAD,2023-04-29 11:46:20,15.08849991,0.0001347,53.2162,211.2027,101.7714,258.3429,-8.754e-05,-1.681e-05,0.0,0 STARLINK-3807,1 52353U 22045Y   23119.49051213 -.00001681  00000-0 -87540-4 0  9998,2 52353  53.2162 211.2027 0001347 101.7714 258.3429 15.08849991 57997,6917.85,95.437,540.647,538.783,0.0
52353.0,STARLINK-3807,PAYLOAD,2023-04-29 16:32:29,15.08856514,0.0001293,53.2158,210.3098,94.603,265.511,0.00055429,8.549e-05,0.0,0 STARLINK-3807,1 52353U 22045Y   23119.68923080  .00008549  00000-0  55429-3 0  9997,2 52353  53.2158 210.3098 0001293  94.6030 265.5110 15.08856514 58022,6917.83,95.437,540.589,538.8,0.0
52353.0,STARLINK-3807,PAYLOAD,2023-04-30 13:12:30,15.08835399,0.0001123,53.2148,206.4443,94.6322,265.4799,0.00054925,8.463e-05,0.0,0 STARLINK-3807,1 52353U 22045Y   23120.55035765  .00008463  00000-0  54925-3 0  9994,2 52353  53.2148 206.4443 0001123  94.6322 265.4799 15.08835399 58151,6917.894,95.438,540.536,538.983,0.0
52353.0,STARLINK-3807,PAYLOAD,2023-04-30 14:47:53,15.08839061,0.0001206,53.2151,206.1472,100.869,259.2438,0.00022594,3.31e-05,0.0,0 STARLINK-3807,1 52353U 22045Y   23120.61659559  .00003310  00000-0  22594-3 0  9997,2 52353  53.2151 206.1472 0001206 100.8690 259.2438 15.08839061 58166,6917.883,95.438,540.583,538.914,0.0
52353.0,STARLINK-3807,PAYLOAD,2023-05-01 13:03:17,15.08845225,0.0001359,53.2158,201.9842,86.5921,273.5226,0.00029059,4.34e-05,0.0,0 STARLINK-3807,1 52353U 22045Y   23121.54395783  .00004340  00000-0  29059-3 0  9993,2 52353  53.2158 201.9842 0001359  86.5921 273.5226 15.08845225 58302,6917.864,95.437,540.67,538.789,0.0
52353.0,STARLINK-3807,PAYLOAD,2023-05-02 04:57:09,15.08849919,0.0001376,53.2146,199.0108,91.5321,268.5829,9.4974e-05,1.224e-05,0.0,0 STARLINK-3807,1 52353U 22045Y   23122.20635634  .00001224  00000-0  94974-4 0  9996,2 52353  53.2146 199.0108 0001376  91.5321 268.5829 15.08849919 58408,6917.85,95.437,540.667,538.763,0.0
52353.0,STARLINK-3807,PAYLOAD,2023-05-02 11:18:41,15.08847118,0.0001406,53.2161,197.8226,82.3674,277.7478,0.00022821,3.347e-05,0.0,0 STARLINK-3807,1 52353U 22045Y   23122.47131716  .00003347  00000-0  22821-3 0  9996,2 52353  53.2161 197.8226 0001406  82.3674 277.7478 15.08847118 58440,6917.859,95.437,540.696,538.751,0.0
52353.0,STARLINK-3807,PAYLOAD,2023-05-03 04:47:57,15.08823513,0.0001377,53.2155,194.5515,96.086,264.0289,0.00064186,9.937e-05,0.0,0 STARLINK-3807,1 52353U 22045Y   23123.19997134  .00009937  00000-0  64186-3 0  9991,2 52353  53.2155 194.5515 0001377  96.0860 264.0289 15.08823513 58558,6917.931,95.439,540.748,538.843,0.0
52353.0,STARLINK-3807,PAYLOAD,2023-05-03 11:09:29,15.0883891,0.0001348,53.2162,193.3614,97.7331,262.3814,2.2792e-05,7.5e-07,0.0,0 STARLINK-3807,1 52353U 22045Y   23123.46491964  .00000075  00000-0  22792-4 0  9993,2 52353  53.2162 193.3614 0001348  97.7331 262.3814 15.08838910 58598,6917.884,95.438,540.681,538.816,0.0
52353.0,STARLINK-3807,PAYLOAD,2023-05-03 14:20:15,15.08841115,0.0001354,53.2162,192.7659,99.8949,260.2196,3.983e-05,3.46e-06,0.0,0 STARLINK-3807,1 52353U 22045Y   23123.59739927  .00000346  00000-0  39830-4 0  9993,2 52353  53.2162 192.7659 0001354  99.8949 260.2196 15.08841115 58619,6917.877,95.437,540.679,538.805,0.0
52353.0,STARLINK-3807,PAYLOAD,2023-05-04 11:00:16,15.08838097,0.0001213,53.2159,188.9009,83.8654,276.2476,1.3371e-05,-7.5e-07,0.0,0 STARLINK-3807,1 52353U 22045Y   23124.45852277 -.00000075  00000-0  13371-4 0  9995,2 52353  53.2159 188.9009 0001213  83.8654 276.2476 15.08838097 58748,6917.886,95.438,540.59,538.912,0.0
52353.0,STARLINK-3807,PAYLOAD,2023-05-04 14:11:02,15.08840515,0.0001198,53.2156,188.3058,84.7789,275.334,3.358e-05,2.47e-06,0.0,0 STARLINK-3807,1 52353U 22045Y   23124.59100087  .00000247  00000-0  33580-4 0  9999,2 52353  53.2156 188.3058 0001198  84.7789 275.3340 15.08840515 58764,6917.879,95.438,540.573,538.915,0.0
52353.0,STARLINK-3807,PAYLOAD,2023-05-05 20:23:22,15.08838807,0.000116,53.2163,182.6561,86.3022,273.8103,5.9387e-05,6.57e-06,0.0,0 STARLINK-3807,1 52353U 22045Y   23125.84956518  .00000657  00000-0  59387-4 0  9994,2 52353  53.2163 182.6561 0001160  86.3022 273.8103 15.08838807 58957,6917.884,95.438,540.552,538.947,0.0
52353.0,STARLINK-3807,PAYLOAD,2023-05-05 23:34:08,15.08832219,0.0001278,53.216,182.061,85.8523,274.2615,0.00016223,2.294e-05,0.0,0 STARLINK-3807,1 52353U 22045Y   23125.98204799  .00002294  00000-0  16223-3 0  9996,2 52353  53.2160 182.0610 0001278  85.8523 274.2615 15.08832219 58979,6917.904,95.438,540.653,538.885,0.0
52353.0,STARLINK-3807,PAYLOAD,2023-05-06 07:31:04,15.08846588,0.0001121,53.216,180.5743,82.6422,277.4698,3.5439e-05,2.76e-06,0.0,0 STARLINK-3807,1 52353U 22045Y   23126.31324324  .00000276  00000-0  35439-4 0  9990,2 52353  53.2160 180.5743 0001121  82.6422 277.4698 15.08846588 59026,6917.86,95.437,540.501,538.95,0.0
52353.0,STARLINK-3807,PAYLOAD,2023-05-06 23:24:55,15.08843057,0.000121,53.2161,177.6011,87.0375,273.0755,0.00015562,2.19e-05,0.0,0 STARLINK-3807,1 52353U 22045Y   23126.97564216  .00002190  00000-0  15562-3 0  9999,2 52353  53.2161 177.6011 0001210  87.0375 273.0755 15.08843057 59122,6917.871,95.437,540.573,538.899,0.0
52353.0,STARLINK-3807,PAYLOAD,2023-05-07 10:32:37,15.08847838,0.0001183,53.2164,175.5197,87.8742,272.2386,0.00012332,1.676e-05,0.0,0 STARLINK-3807,1 52353U 22045Y   23127.43931932  .00001676  00000-0  12332-3 0  9994,2 52353  53.2164 175.5197 0001183  87.8742 272.2386 15.08847838 59191,6917.856,95.437,540.54,538.903,0.0
52353.0,STARLINK-3807,PAYLOAD,2023-05-07 20:04:56,15.08841127,0.0001137,53.2168,173.7362,90.8571,269.2552,7.2984e-05,8.74e-06,0.0,0 STARLINK-3807,1 52353U 22045Y   23127.83676381  .00000874  00000-0  72984-4 0  9991,2 52353  53.2168 173.7362 0001137  90.8571 269.2552 15.08841127 59255,6917.877,95.437,540.529,538.955,0.0
